ORBCOMM FM05            
1 25117U 97084F   25296.84825269  .00002733  00000+0  79299-3 0  9995
2 25117  45.0125 110.1106 0003026 146.8661 213.2381 14.46421646459239
ORBCOMM FM06            
1 25118U 97084G   25296.85649615  .00002556  00000+0  74182-3 0  9995
2 25118  45.0118 109.6588 0001955 149.1180   2.1082 14.46577236460153
ORBCOMM FM07            
1 25119U 97084H   25296.90946160  .00002368  00000+0  69004-3 0  9995
2 25119  45.0113 110.1619 0003840 143.4397 216.6717 14.46594398460158
ORBCOMM FM03            
1 25158U 98007B   25297.26004148  .00001524  00000+0  57655-3 0  9997
2 25158 107.9635  40.7955 0043326  20.5053 339.7815 14.34832630442557
ORBCOMM FM04            
1 25159U 98007C   25297.22219430  .00001655  00000+0  62032-3 0  9996
2 25159 107.9625  44.0247 0039198  17.6110 342.6380 14.35076419442737
ORBCOMM FM17            
1 25413U 98046A   25297.24442087  .00001462  00000+0  55370-3 0  9993
2 25413  44.9955   8.4065 0003262 180.2166 179.8680 14.35379077421713
ORBCOMM FM18            
1 25414U 98046B   25297.29846573  .00002094  00000+0  71861-3 0  9992
2 25414  44.9926 282.0592 0005596 238.3936 121.6367 14.38943838422846
ORBCOMM FM19            
1 25415U 98046C   25297.06347013  .00001915  00000+0  66344-3 0  9994
2 25415  44.9942 285.3742 0004314 239.8482 169.7516 14.38756913422763
